STARLINK-11130 [DTC]    
1 59950U 24107F   25251.78388518  .00003550  00000+0  34091-4 0  9998
2 59950  53.1581  68.1411 0000888  87.2226 272.8894 15.69751828 73579
STARLINK-11124 [DTC]    
1 59952U 24107H   25251.77409157  .00002871  00000+0  28519-4 0  9995
2 59952  53.1599  68.0742 0000574  80.5115 279.5968 15.69732758 73646
STARLINK-11143 [DTC]    
1 59953U 24107J   25251.76427368  .00001147  00000+0  14300-4 0  9997
2 59953  53.1601  68.0083 0000725  99.0938 261.0162 15.69746101 73576
STARLINK-11133 [DTC]    
1 59954U 24107K   25251.75936925  .00001333  00000+0  15832-4 0  9999
2 59954  53.1594  67.9752 0000299 113.1378 246.9672 15.69744465 73570
STARLINK-11144 [DTC]    
1 59955U 24107L   25251.75447859  .00000706  00000+0  10669-4 0  9999
2 59955  53.1596  67.9492 0000533 140.1536 219.9522 15.69729423 73639
STARLINK-11134 [DTC]    
1 59956U 24107M   25251.74956609  .00001501  00000+0  17226-4 0  9997
2 59956  53.1594  67.9106 0000939  89.5797 270.5329 15.69731237 73505
STARLINK-11142 [DTC]    
1 59957U 24107N   25251.74465264  .00003181  00000+0  31063-4 0  9991
2 59957  53.1594  67.8785 0000844  65.2319 294.8787 15.69743613 73580
STARLINK-31995          
1 59958U 24107P   25252.09144598  .00003622  00000+0  13432-3 0  9994
2 59958  53.1611 188.9900 0001532  89.0378 271.0799 15.30214934 70796
STARLINK-31989          
1 59959U 24107Q   25252.15044623  .00000302  00000+0  22333-4 0  9993
2 59959  53.1599 188.6491 0001364  87.2684 272.8473 15.30204088 72000
STARLINK-31856          
1 59960U 24107R   25252.08828919  .00002178  00000+0  85659-4 0  9998
2 59960  53.1603 188.9687 0001562  86.3311 273.7869 15.30200961 71997
STARLINK-31993          
1 59961U 24107S   25252.09780330 -.00001070  00000+0 -24019-4 0  9999
2 59961  53.1607 189.0266 0001092  46.0346 314.0744 15.30200377 71932
STARLINK-31980          
1 59962U 24107T   25252.23580827  .00000915  00000+0  43019-4 0  9991
2 59962  53.1602 188.4647 0001224  77.5974 282.5164 15.30200241 72012
STARLINK-31991          
1 59963U 24107U   25252.22525484  .00002360  00000+0  91779-4 0  9991
2 59963  53.1596 188.3986 0001223  81.4586 278.6554 15.30200744 72019
STARLINK-31979          
1 59964U 24107V   25252.10201683 -.00000125  00000+0  79019-5 0  9993
2 59964  53.1602 189.0498 0001337  83.8907 276.2246 15.30196258 71940
STARLINK-31978          
1 60016U 24111A   25252.27581191  .00000150  00000+0  17184-4 0  9992
2 60016  53.1596 198.6034 0001190  76.3994 283.7140 15.30206414 71159
STARLINK-31987          
1 60017U 24111B   25252.26948105  .00000484  00000+0  28455-4 0  9997
2 60017  53.1600 198.5624 0001385  73.6332 286.4821 15.30200494 71217
