[{"OBJECT_NAME":"STARLINK-11130 [DTC]","OBJECT_ID":"2024-107F","EPOCH":"2025-09-08T18:48:47.679552","MEAN_MOTION":15.69751828,"ECCENTRICITY":8.887e-5,"INCLINATION":53.1581,"RA_OF_ASC_NODE":68.1411,"ARG_OF_PERICENTER":87.2226,"MEAN_ANOMALY":272.8894,"EPHEMERIS_TYPE":0,"CLASSIFICATION_TYPE":"U","NORAD_CAT_ID":59950,"ELEMENT_SET_NO":999,"REV_AT_EPOCH":7357,"BSTAR":3.409076e-5,"MEAN_MOTION_DOT":3.55e-5,"MEAN_MOTION_DDOT":0},{"OBJECT_NAME":"STARLINK-11124 [DTC]","OBJECT_ID":"2024-107H","EPOCH":"2025-09-08T18:34:41.511648","MEAN_MOTION":15.69732758,"ECCENTRICITY":5.748e-5,"INCLINATION":53.1599,"RA_OF_ASC_NODE":68.0742,"ARG_OF_PERICENTER":80.5115,"MEAN_ANOMALY":279.5968,"EPHEMERIS_TYPE":0,"CLASSIFICATION_TYPE":"U","NORAD_CAT_ID":59952,"ELEMENT_SET_NO":999,"REV_AT_EPOCH":7364,"BSTAR":2.8518755e-5,"MEAN_MOTION_DOT":2.871e-5,"MEAN_MOTION_DDOT":0},{"OBJECT_NAME":"STARLINK-11143 [DTC]","OBJECT_ID":"2024-107J","EPOCH":"2025-09-08T18:20:33.245952","MEAN_MOTION":15.69746101,"ECCENTRICITY":7.256e-5,"INCLINATION":53.1601,"RA_OF_ASC_NODE":68.0083,"ARG_OF_PERICENTER":99.0938,"MEAN_ANOMALY":261.0162,"EPHEMERIS_TYPE":0,"CLASSIFICATION_TYPE":"U","NORAD_CAT_ID":59953,"ELEMENT_SET_NO":999,"REV_AT_EPOCH":7357,"BSTAR":1.4300463e-5,"MEAN_MOTION_DOT":1.147e-5,"MEAN_MOTION_DDOT":0},{"OBJECT_NAME":"STARLINK-11133 [DTC]","OBJECT_ID":"2024-107K","EPOCH":"2025-09-08T18:13:29.503200","MEAN_MOTION":15.69744465,"ECCENTRICITY":2.999e-5,"INCLINATION":53.1594,"RA_OF_ASC_NODE":67.9752,"ARG_OF_PERICENTER":113.1378,"MEAN_ANOMALY":246.9672,"EPHEMERIS_TYPE":0,"CLASSIFICATION_TYPE":"U","NORAD_CAT_ID":59954,"ELEMENT_SET_NO":999,"REV_AT_EPOCH":7357,"BSTAR":1.5832014e-5,"MEAN_MOTION_DOT":1.333e-5,"MEAN_MOTION_DDOT":0},{"OBJECT_NAME":"STARLINK-11144 [DTC]","OBJECT_ID":"2024-107L","EPOCH":"2025-09-08T18:06:26.950176","MEAN_MOTION":15.69729423,"ECCENTRICITY":5.331e-5,"INCLINATION":53.1596,"RA_OF_ASC_NODE":67.9492,"ARG_OF_PERICENTER":140.1536,"MEAN_ANOMALY":219.9522,"EPHEMERIS_TYPE":0,"CLASSIFICATION_TYPE":"U","NORAD_CAT_ID":59955,"ELEMENT_SET_NO":999,"REV_AT_EPOCH":7363,"BSTAR":1.0669196e-5,"MEAN_MOTION_DOT":7.06e-6,"MEAN_MOTION_DDOT":0},{"OBJECT_NAME":"STARLINK-11134 [DTC]","OBJECT_ID":"2024-107M","EPOCH":"2025-09-08T17:59:22.510176","MEAN_MOTION":15.69731237,"ECCENTRICITY":9.392e-5,"INCLINATION":53.1594,"RA_OF_ASC_NODE":67.9106,"ARG_OF_PERICENTER":89.5797,"MEAN_ANOMALY":270.5329,"EPHEMERIS_TYPE":0,"CLASSIFICATION_TYPE":"U","NORAD_CAT_ID":59956,"ELEMENT_SET_NO":999,"REV_AT_EPOCH":7350,"BSTAR":1.7225697e-5,"MEAN_MOTION_DOT":1.501e-5,"MEAN_MOTION_DDOT":0},{"OBJECT_NAME":"STARLINK-11142 [DTC]","OBJECT_ID":"2024-107N","EPOCH":"2025-09-08T17:52:17.988096","MEAN_MOTION":15.69743613,"ECCENTRICITY":8.448e-5,"INCLINATION":53.1594,"RA_OF_ASC_NODE":67.8785,"ARG_OF_PERICENTER":65.2319,"MEAN_ANOMALY":294.8787,"EPHEMERIS_TYPE":0,"CLASSIFICATION_TYPE":"U","NORAD_CAT_ID":59957,"ELEMENT_SET_NO":999,"REV_AT_EPOCH":7358,"BSTAR":3.1063124e-5,"MEAN_MOTION_DOT":3.181e-5,"MEAN_MOTION_DDOT":0},{"OBJECT_NAME":"STARLINK-31995","OBJECT_ID":"2024-107P","EPOCH":"2025-09-09T02:11:40.932672","MEAN_MOTION":15.30214934,"ECCENTRICITY":0.00015329,"INCLINATION":53.1611,"RA_OF_ASC_NODE":188.99,"ARG_OF_PERICENTER":89.0378,"MEAN_ANOMALY":271.0799,"EPHEMERIS_TYPE":0,"CLASSIFICATION_TYPE":"U","NORAD_CAT_ID":59958,"ELEMENT_SET_NO":999,"REV_AT_EPOCH":7079,"BSTAR":0.00013431556,"MEAN_MOTION_DOT":3.622e-5,"MEAN_MOTION_DDOT":0},{"OBJECT_NAME":"STARLINK-31989","OBJECT_ID":"2024-107Q","EPOCH":"2025-09-09T03:36:38.554272","MEAN_MOTION":15.30204088,"ECCENTRICITY":0.00013647,"INCLINATION":53.1599,"RA_OF_ASC_NODE":188.6491,"ARG_OF_PERICENTER":87.2684,"MEAN_ANOMALY":272.8473,"EPHEMERIS_TYPE":0,"CLASSIFICATION_TYPE":"U","NORAD_CAT_ID":59959,"ELEMENT_SET_NO":999,"REV_AT_EPOCH":7200,"BSTAR":2.233264e-5,"MEAN_MOTION_DOT":3.02e-6,"MEAN_MOTION_DDOT":0},{"OBJECT_NAME":"STARLINK-31856","OBJECT_ID":"2024-107R","EPOCH":"2025-09-09T02:07:08.186016","MEAN_MOTION":15.30200961,"ECCENTRICITY":0.00015629,"INCLINATION":53.1603,"RA_OF_ASC_NODE":188.9687,"ARG_OF_PERICENTER":86.3311,"MEAN_ANOMALY":273.7869,"EPHEMERIS_TYPE":0,"CLASSIFICATION_TYPE":"U","NORAD_CAT_ID":59960,"ELEMENT_SET_NO":999,"REV_AT_EPOCH":7199,"BSTAR":8.5658593e-5,"MEAN_MOTION_DOT":2.178e-5,"MEAN_MOTION_DDOT":0},{"OBJECT_NAME":"STARLINK-31993","OBJECT_ID":"2024-107S","EPOCH":"2025-09-09T02:20:50.205120","MEAN_MOTION":15.30200377,"ECCENTRICITY":0.0001092,"INCLINATION":53.1607,"RA_OF_ASC_NODE":189.0266,"ARG_OF_PERICENTER":46.0346,"MEAN_ANOMALY":314.0744,"EPHEMERIS_TYPE":0,"CLASSIFICATION_TYPE":"U","NORAD_CAT_ID":59961,"ELEMENT_SET_NO":999,"REV_AT_EPOCH":7193,"BSTAR":-2.4019147e-5,"MEAN_MOTION_DOT":-1.07e-5,"MEAN_MOTION_DDOT":0},{"OBJECT_NAME":"STARLINK-31980","OBJECT_ID":"2024-107T","EPOCH":"2025-09-09T05:39:33.834528","MEAN_MOTION":15.30200241,"ECCENTRICITY":0.00012242,"INCLINATION":53.1602,"RA_OF_ASC_NODE":188.4647,"ARG_OF_PERICENTER":77.5974,"MEAN_ANOMALY":282.5164,"EPHEMERIS_TYPE":0,"CLASSIFICATION_TYPE":"U","NORAD_CAT_ID":59962,"ELEMENT_SET_NO":999,"REV_AT_EPOCH":7201,"BSTAR":4.3018775e-5,"MEAN_MOTION_DOT":9.15e-6,"MEAN_MOTION_DDOT":0},{"OBJECT_NAME":"STARLINK-31991","OBJECT_ID":"2024-107U","EPOCH":"2025-09-09T05:24:22.018176","MEAN_MOTION":15.30200744,"ECCENTRICITY":0.00012237,"INCLINATION":53.1596,"RA_OF_ASC_NODE":188.3986,"ARG_OF_PERICENTER":81.4586,"MEAN_ANOMALY":278.6554,"EPHEMERIS_TYPE":0,"CLASSIFICATION_TYPE":"U","NORAD_CAT_ID":59963,"ELEMENT_SET_NO":999,"REV_AT_EPOCH":7201,"BSTAR":9.1779072e-5,"MEAN_MOTION_DOT":2.36e-5,"MEAN_MOTION_DDOT":0},{"OBJECT_NAME":"STARLINK-31979","OBJECT_ID":"2024-107V","EPOCH":"2025-09-09T02:26:54.254112","MEAN_MOTION":15.30196258,"ECCENTRICITY":0.00013376,"INCLINATION":53.1602,"RA_OF_ASC_NODE":189.0498,"ARG_OF_PERICENTER":83.8907,"MEAN_ANOMALY":276.2246,"EPHEMERIS_TYPE":0,"CLASSIFICATION_TYPE":"U","NORAD_CAT_ID":59964,"ELEMENT_SET_NO":999,"REV_AT_EPOCH":7194,"BSTAR":7.901867e-6,"MEAN_MOTION_DOT":-1.25e-6,"MEAN_MOTION_DDOT":0},{"OBJECT_NAME":"STARLINK-31978","OBJECT_ID":"2024-111A","EPOCH":"2025-09-09T06:37:10.149024","MEAN_MOTION":15.30206414,"ECCENTRICITY":0.00011901,"INCLINATION":53.1596,"RA_OF_ASC_NODE":198.6034,"ARG_OF_PERICENTER":76.3994,"MEAN_ANOMALY":283.714,"EPHEMERIS_TYPE":0,"CLASSIFICATION_TYPE":"U","NORAD_CAT_ID":60016,"ELEMENT_SET_NO":999,"REV_AT_EPOCH":7115,"BSTAR":1.7184363e-5,"MEAN_MOTION_DOT":1.5e-6,"MEAN_MOTION_DDOT":0},{"OBJECT_NAME":"STARLINK-31987","OBJECT_ID":"2024-111B","EPOCH":"2025-09-09T06:28:03.162720","MEAN_MOTION":15.30200494,"ECCENTRICITY":0.00013858,"INCLINATION":53.16,"RA_OF_ASC_NODE":198.5624,"ARG_OF_PERICENTER":73.6332,"MEAN_ANOMALY":286.4821,"EPHEMERIS_TYPE":0,"CLASSIFICATION_TYPE":"U","NORAD_CAT_ID":60017,"ELEMENT_SET_NO":999,"REV_AT_EPOCH":7121,"BSTAR":2.8454766e-5,"MEAN_MOTION_DOT":4.84e-6,"MEAN_MOTION_DDOT":0}]
